STARLINK-35671          
1 66392U 25257N   25333.83335647  .00128438  00000+0  22849-2 0  9994
2 66392  53.1595 325.5216 0001037  72.4846 125.9907 15.49243119  4424
STARLINK-35652          
1 66393U 25257P   25333.83335647  .00098852  00000+0  17674-2 0  9991
2 66393  53.1593 325.5249 0001572  81.9950 114.6109 15.49237480  4427
STARLINK-35672          
1 66394U 25257Q   25333.83335647  .00099705  00000+0  17824-2 0  9997
2 66394  53.1593 325.5163 0001535  80.9196 119.5199 15.49237225  4423
STARLINK-35681          
1 66395U 25257R   25333.83335647  .00100637  00000+0  17989-2 0  9997
2 66395  53.1593 325.5131 0001568  80.0470 122.3097 15.49236006  4268
STARLINK-35669          
1 66396U 25257S   25333.83335647  .00104253  00000+0  18625-2 0  9994
2 66396  53.1594 325.5083 0001429  80.7879 123.4860 15.49233846  4429
STARLINK-35510          
1 66397U 25257T   25333.83335647  .00126490  00000+0  22502-2 0  9991
2 66397  53.1595 325.5051 0000808  72.6970 133.4133 15.49251992  4424
STARLINK-35642          
1 66398U 25257U   25333.83335647  .00099504  00000+0  17790-2 0  9990
2 66398  53.1595 325.5003 0001505  78.4185 129.6920 15.49235936  4420
STARLINK-35657          
1 66399U 25257V   25333.83335647  .00103202  00000+0  18441-2 0  9996
2 66399  53.1594 325.4965 0001613  77.7810 132.2466 15.49232920  4428
STARLINK-35667          
1 66400U 25257W   25333.83335647  .00102688  00000+0  18349-2 0  9993
2 66400  53.1596 325.4881 0001598  79.5137 134.3440 15.49235350  4429
STARLINK-35668          
1 66401U 25257X   25333.83335647  .00102374  00000+0  18294-2 0  9995
2 66401  53.1593 325.4844 0001554  79.3049 136.4713 15.49234881  4422
STARLINK-35644          
1 66402U 25257Y   25333.83335647  .00102170  00000+0  18260-2 0  9993
2 66402  53.1596 325.4922 0001554  80.0791 131.8677 15.49232670  4428
STARLINK-35602          
1 66403U 25257Z   25333.83335647  .00103510  00000+0  18495-2 0  9993
2 66403  53.1594 325.4804 0001659  78.3265 139.3683 15.49233036  4425
